[{"OBJECT_NAME":"1998-067XK","OBJECT_ID":"1998-067XK","EPOCH":"2025-10-03T14:35:08.938176","MEAN_MOTION":15.53402939,"ECCENTRICITY":7.936e-5,"INCLINATION":51.6319,"RA_OF_ASC_NODE":129.4721,"ARG_OF_PERICENTER":233.5229,"MEAN_ANOMALY":126.5689,"EPHEMERIS_TYPE":0,"CLASSIFICATION_TYPE":"U","NORAD_CAT_ID":65731,"ELEMENT_SET_NO":999,"REV_AT_EPOCH":220,"BSTAR":0.0012306614,"MEAN_MOTION_DOT":0.00079667,"MEAN_MOTION_DDOT":0},{"OBJECT_NAME":"RSP-03","OBJECT_ID":"1998-067XL","EPOCH":"2025-10-03T14:33:47.581344","MEAN_MOTION":15.53669384,"ECCENTRICITY":8.628e-5,"INCLINATION":51.6317,"RA_OF_ASC_NODE":129.4655,"ARG_OF_PERICENTER":241.0067,"MEAN_ANOMALY":119.0837,"EPHEMERIS_TYPE":0,"CLASSIFICATION_TYPE":"U","NORAD_CAT_ID":65732,"ELEMENT_SET_NO":999,"REV_AT_EPOCH":221,"BSTAR":0.0014139123,"MEAN_MOTION_DOT":0.00092648,"MEAN_MOTION_DDOT":0},{"OBJECT_NAME":"1998-067XM","OBJECT_ID":"1998-067XM","EPOCH":"2025-10-04T19:50:25.079424","MEAN_MOTION":15.54339193,"ECCENTRICITY":0.0002544,"INCLINATION":51.6317,"RA_OF_ASC_NODE":123.3616,"ARG_OF_PERICENTER":108.3031,"MEAN_ANOMALY":251.8237,"EPHEMERIS_TYPE":0,"CLASSIFICATION_TYPE":"U","NORAD_CAT_ID":65733,"ELEMENT_SET_NO":999,"REV_AT_EPOCH":240,"BSTAR":0.0014249,"MEAN_MOTION_DOT":0.00095731,"MEAN_MOTION_DDOT":0}]
